{
"type": "FeatureCollection",
"name": "Flood_Bypasses",
"crs": { "type": "name", "properties": { "name": "urn:ogc:def:crs:OGC:1.3:CRS84" } },
"features": [
{ "type": "Feature", "properties": { "FID": 1, "SACOG_SACO": 0, "PERIMETER": 440517.709, "NAME": "Yolo Bypass", "Shape_STAr": 1980205994.01, "Shape_STLe": 440516.97672400001 }, "geometry": { "type": "Polygon", "coordinates": [ [ [ -121.694304934659996, 38.759691755958201 ], [ -121.689275428971996, 38.765011683447803 ], [ -121.688375099750004, 38.764366622305701 ], [ -121.687556957672996, 38.763786084058303 ], [ -121.686737697249001, 38.763462579540601 ], [ -121.685835596659004, 38.7633315789096 ], [ -121.685097208252998, 38.763265296767599 ], [ -121.684194086632999, 38.763262843082103 ], [ -121.683127211504996, 38.763324189230197 ], [ -121.682305072139002, 38.7636432657645 ], [ -121.681320018907996, 38.763640537991797 ], [ -121.680663558456999, 38.763574452551502 ], [ -121.679926039738007, 38.763315323596998 ], [ -121.679601305432996, 38.762607635886802 ], [ -121.678947790812003, 38.761898928425197 ], [ -121.678539786523004, 38.7613837961527 ], [ -121.678131462663004, 38.760932860418102 ], [ -121.677067661243996, 38.7602230036943 ], [ -121.676329897578995, 38.760028214667997 ], [ -121.674278284533997, 38.760022420357899 ], [ -121.673212174178005, 38.759826607188103 ], [ -121.671654653355006, 38.7594366335614 ], [ -121.670916580682004, 38.759306008096601 ], [ -121.670013842992006, 38.759239163724999 ], [ -121.670183276074994, 38.758147302536997 ], [ -121.670842946598995, 38.757506581879497 ], [ -121.671912115024995, 38.756931352012501 ], [ -121.672654599322001, 38.7560980386911 ], [ -121.673644887386999, 38.7549442582879 ], [ -121.674138926270999, 38.754560123368996 ], [ -121.674223231420996, 38.754046274308202 ], [ -121.675129720724996, 38.753277769091497 ], [ -121.675954990991002, 38.752251959710698 ], [ -121.676697343683998, 38.751418702526102 ], [ -121.677029744546005, 38.750520019096598 ], [ -121.677195713908006, 38.750070676369504 ], [ -121.677198045797994, 38.749556597013701 ], [ -121.676957551065996, 38.748270768024703 ], [ -121.676471785689003, 38.746855692174897 ], [ -121.675901722337997, 38.745954464706998 ], [ -121.675137994077005, 38.744467817151602 ], [ -121.674351658700999, 38.743614798127702 ], [ -121.673663006821997, 38.743071373321001 ], [ -121.672973198316996, 38.742682754594497 ], [ -121.670796733344005, 38.7435273605386 ], [ -121.669606984734997, 38.744529388072998 ], [ -121.668813516262006, 38.7452232925787 ], [ -121.668415005089003, 38.745995535425301 ], [ -121.668115838896995, 38.746613467261703 ], [ -121.667913135565996, 38.747695702886602 ], [ -121.668103935689999, 38.749165823183802 ], [ -121.668395544128003, 38.750172175249197 ], [ -121.668788284658007, 38.750637352640901 ], [ -121.668980944859001, 38.751720717513898 ], [ -121.668779285037004, 38.752570929366001 ], [ -121.668677798489, 38.753189398985299 ], [ -121.667784860111993, 38.754037606039702 ], [ -121.666696073291007, 38.754498512533402 ], [ -121.666002620019995, 38.754960547221003 ], [ -121.665409256871996, 38.755113541648797 ], [ -121.664913772077995, 38.755421519238702 ], [ -121.664221702304999, 38.755496815884399 ], [ -121.663432905101004, 38.755262503195702 ], [ -121.659486149496004, 38.754400120828997 ], [ -121.658597945485994, 38.754242780360201 ], [ -121.658003828768003, 38.7545504658124 ], [ -121.657998253170007, 38.755710561620702 ], [ -121.658090496230997, 38.756948352248799 ], [ -121.658087151550006, 38.757644426102701 ], [ -121.658183619221006, 38.758186145274699 ], [ -121.660046264735996, 38.761208060311297 ], [ -121.662111435593005, 38.763070422728099 ], [ -121.662996827385996, 38.763846376833698 ], [ -121.663881907757997, 38.7646997572865 ], [ -121.664372318480005, 38.765474638653302 ], [ -121.664364291557007, 38.767176188433503 ], [ -121.663966740093002, 38.767716390383498 ], [ -121.663371035444001, 38.768333423122002 ], [ -121.66238099633, 38.768717251439803 ], [ -121.661096095854006, 38.768868210635397 ], [ -121.660009307752006, 38.768942329412603 ], [ -121.659120179808994, 38.768939694373799 ], [ -121.658033626565, 38.7687818500265 ], [ -121.657941369151999, 38.767544060436798 ], [ -121.657844890636994, 38.767002341438896 ], [ -121.657353304547001, 38.766382104954303 ], [ -121.656962091446999, 38.765684866183797 ], [ -121.656076368954999, 38.764986161879698 ], [ -121.655287366227995, 38.764597062650999 ], [ -121.654005238102997, 38.764283813448003 ], [ -121.652918355040001, 38.764203244242502 ], [ -121.652029286583996, 38.764200554890401 ], [ -121.651041638097993, 38.764274886714297 ], [ -121.649459218719997, 38.764579498243897 ], [ -121.647776210838003, 38.765193135234199 ], [ -121.646984674343997, 38.765500055387399 ], [ -121.645994970868003, 38.765806448338402 ], [ -121.645204541843995, 38.765881331880898 ], [ -121.642141442626993, 38.765949198273503 ], [ -121.641547901474993, 38.766102070472698 ], [ -121.640855799009998, 38.766331931607901 ], [ -121.640162423760998, 38.766639191391498 ], [ -121.639073201375993, 38.767022541226403 ], [ -121.639068100947, 38.768027933898502 ], [ -121.640051603857998, 38.768959181713797 ], [ -121.641037474333004, 38.769426290281103 ], [ -121.642220298064004, 38.769971349384797 ], [ -121.643405042975004, 38.770129725835602 ], [ -121.644392884726997, 38.770210080479501 ], [ -121.645280485317997, 38.770522230620799 ], [ -121.645969535166003, 38.770911092868403 ], [ -121.646856418984001, 38.7713778498184 ], [ -121.647644301613994, 38.771999030416197 ], [ -121.648332996597006, 38.772465174244601 ], [ -121.648627095188004, 38.772930120252603 ], [ -121.648129192086003, 38.773779371290701 ], [ -121.647337944761006, 38.7740089980067 ], [ -121.646546968351004, 38.774006564984902 ], [ -121.645559913285993, 38.773926231265001 ], [ -121.644375100353002, 38.773767876852503 ], [ -121.643486300055002, 38.773687826433502 ], [ -121.642103668413995, 38.773451516843302 ], [ -121.641314745005999, 38.7732170541519 ], [ -121.640427910251006, 38.772750145205997 ], [ -121.638951839827001, 38.771585424630501 ], [ -121.637967098925003, 38.770886246677698 ], [ -121.637279976626999, 38.769955907806199 ], [ -121.636887756383999, 38.769490625789103 ], [ -121.636594538942006, 38.7688709488136 ], [ -121.636498616233993, 38.768251889043803 ], [ -121.636206593704003, 38.767400186801702 ], [ -121.635814309766999, 38.766780169730502 ], [ -121.634727924106997, 38.766776756180903 ], [ -121.634033687230996, 38.767238680351198 ], [ -121.633734133266003, 38.767856495099799 ], [ -121.633235689290998, 38.768783005666798 ], [ -121.632738430095998, 38.769477489874902 ], [ -121.632536664995996, 38.770172935174699 ], [ -121.632335372937007, 38.7709457608508 ], [ -121.632324979938005, 38.772956737127998 ], [ -121.632219892766997, 38.774116516176903 ], [ -121.631919093570005, 38.7749663499701 ], [ -121.631124171514998, 38.775891910809399 ], [ -121.630627937596998, 38.776199740076599 ], [ -121.629934896695005, 38.776584264354099 ], [ -121.628847081367994, 38.776658088542398 ], [ -121.628242932714002, 38.776811106177099 ], [ -121.628196338850003, 38.775658561024699 ], [ -121.628212692483999, 38.772529449314497 ], [ -121.629139084374998, 38.770270702953901 ], [ -121.630172630439006, 38.769315875835602 ], [ -121.631325531433006, 38.767665883893798 ], [ -121.635429713020997, 38.763805709094697 ], [ -121.634598438816994, 38.749135895679601 ], [ -121.634623980434, 38.744167961653197 ], [ -121.634356514744994, 38.737543133825 ], [ -121.634076061485999, 38.733283963952701 ], [ -121.634095553931999, 38.729498857148698 ], [ -121.633830966538994, 38.722164324786803 ], [ -121.633542958394003, 38.719561041697901 ], [ -121.635677071562, 38.715546088116398 ], [ -121.636601202571001, 38.712000429474998 ], [ -121.638432336872, 38.708221034526503 ], [ -121.640577809980002, 38.701840319354297 ], [ -121.643128405639004, 38.697038360590703 ], [ -121.645168049576, 38.692752962842199 ], [ -121.645485527977996, 38.686881046512603 ], [ -121.644068472447998, 38.682133206999602 ], [ -121.644089950701002, 38.6778415578151 ], [ -121.642759387314001, 38.675109049308801 ], [ -121.641955014556999, 38.6678917488398 ], [ -121.640200803902999, 38.665712133783998 ], [ -121.637196806849005, 38.661552162868801 ], [ -121.631692103023994, 38.653628883935703 ], [ -121.623184197027996, 38.6419403535077 ], [ -121.616371928413002, 38.6323117998664 ], [ -121.606928431643993, 38.619354452728103 ], [ -121.601929885556999, 38.612222020369799 ], [ -121.596183196989003, 38.603900962813903 ], [ -121.591681893833993, 38.598153343317001 ], [ -121.557646692079004, 38.607383594279199 ], [ -121.552600651595, 38.602324776639698 ], [ -121.586846643806993, 38.594600323748701 ], [ -121.587302631322004, 38.593195543135501 ], [ -121.583805342106004, 38.578416327426403 ], [ -121.583073616876007, 38.575835354154201 ], [ -121.583270037397995, 38.573199040500299 ], [ -121.583341212904998, 38.561030210312801 ], [ -121.584523756080998, 38.552558478026299 ], [ -121.584838289697004, 38.477546423372999 ], [ -121.650645655351994, 38.3402997387781 ], [ -121.651327508104998, 38.3137752094486 ], [ -121.694283650927005, 38.313860158955002 ], [ -121.693921625797003, 38.349525226475897 ], [ -121.690383071465007, 38.352502832925403 ], [ -121.690039620666994, 38.3531979420544 ], [ -121.678757625616996, 38.358839355773902 ], [ -121.668838902030998, 38.364654689901101 ], [ -121.659268955526002, 38.368383483473799 ], [ -121.656643924749005, 38.370293144465997 ], [ -121.648269707908, 38.385321774217701 ], [ -121.651382054777997, 38.472158174274199 ], [ -121.637934676124004, 38.496741955764797 ], [ -121.638807464362003, 38.504652737586902 ], [ -121.631904576546006, 38.517769729428601 ], [ -121.629452082582006, 38.529501144234999 ], [ -121.629657593578997, 38.533847411990401 ], [ -121.630088069840994, 38.538976271704598 ], [ -121.630217833057998, 38.5424341557503 ], [ -121.630203337094997, 38.545225171492397 ], [ -121.630155207247, 38.548103015480301 ], [ -121.630312240037, 38.551700753517302 ], [ -121.636260339204, 38.5585408194057 ], [ -121.636790559004993, 38.5637787027839 ], [ -121.637204401779002, 38.566124520097198 ], [ -121.636910576835007, 38.568021522125797 ], [ -121.636760401336005, 38.569695648788503 ], [ -121.636600778928994, 38.573044480621498 ], [ -121.635023263213, 38.575607280111399 ], [ -121.632587481247, 38.579060447393303 ], [ -121.629573109096995, 38.584409637622201 ], [ -121.628589959169005, 38.586780910470999 ], [ -121.629022034402993, 38.591649022506701 ], [ -121.629795768440999, 38.596430630231701 ], [ -121.631937744598005, 38.601561640441403 ], [ -121.663464601773001, 38.6434911169221 ], [ -121.665729911818005, 38.647317617059301 ], [ -121.667084034938, 38.650795720377602 ], [ -121.667869928008997, 38.653751748132898 ], [ -121.668766518026004, 38.657490038344797 ], [ -121.668990982633005, 38.658359512002399 ], [ -121.669777844289996, 38.661141602481798 ], [ -121.669878444001995, 38.664183996071401 ], [ -121.670767603971001, 38.669573772011901 ], [ -121.671319710684998, 38.673833495813298 ], [ -121.672225512690005, 38.675572597848202 ], [ -121.672999089244001, 38.681310069320503 ], [ -121.673320471210999, 38.686091015870801 ], [ -121.673414447343006, 38.690610981001399 ], [ -121.673164720081999, 38.6953044787656 ], [ -121.672794709767004, 38.7014754793002 ], [ -121.670448951476004, 38.705478153850102 ], [ -121.669231380393995, 38.707603776280799 ], [ -121.668313795030002, 38.710203417584403 ], [ -121.667094972995002, 38.712565655454 ], [ -121.665874960096005, 38.715164408740101 ], [ -121.665264136220003, 38.716582085213901 ], [ -121.663747692049995, 38.717997136754001 ], [ -121.664348521056993, 38.718708526946799 ], [ -121.664644794186998, 38.719892289498098 ], [ -121.666185686576995, 38.722417578216699 ], [ -121.668571270846002, 38.7255487827818 ], [ -121.672763069645995, 38.727485912969101 ], [ -121.677285865304, 38.729154686787602 ], [ -121.681197137707002, 38.732477571425903 ], [ -121.684066904077, 38.737035010478799 ], [ -121.688055026658006, 38.739993269799697 ], [ -121.689421901095002, 38.741211169965403 ], [ -121.691013447242, 38.743385222540901 ], [ -121.692486923906998, 38.746428536045102 ], [ -121.692935043933005, 38.748514897004704 ], [ -121.693040050766001, 38.750688025080997 ], [ -121.693489500119, 38.752687424360602 ], [ -121.693371333197007, 38.753556515697802 ], [ -121.693250621616997, 38.7551209965429 ], [ -121.694304934659996, 38.759691755958201 ] ] ] } },
{ "type": "Feature", "properties": { "FID": 2, "SACOG_SACO": 0, "PERIMETER": 611353.999, "NAME": "Sutter Bypass", "Shape_STAr": 1426185105.6300001, "Shape_STLe": 611351.09467899997 }, "geometry": { "type": "Polygon", "coordinates": [ [ [ -121.882206188346004, 39.303697803104697 ], [ -121.882401479736998, 39.2754774300682 ], [ -121.882458132967997, 39.267289317163097 ], [ -121.891762328254003, 39.267095644162403 ], [ -121.892197298921005, 39.252987451878298 ], [ -121.911026523971998, 39.253046299078299 ], [ -121.911063888138003, 39.247125691657203 ], [ -121.915132596513004, 39.247016940528098 ], [ -121.915689746899005, 39.246185458627799 ], [ -121.916171043668001, 39.244574119598802 ], [ -121.91663167435, 39.242264262505103 ], [ -121.916998718089005, 39.240367039267902 ], [ -121.916713856643, 39.239672893241902 ], [ -121.917397484833003, 39.235961518361997 ], [ -121.916849591046997, 39.235312873928301 ], [ -121.916239181522002, 39.234336402266599 ], [ -121.915739346237004, 39.233522496607101 ], [ -121.915444820931, 39.2324996260216 ], [ -121.915420597128005, 39.231677797352802 ], [ -121.915441929059, 39.230608560256002 ], [ -121.915211158296998, 39.229954645039498 ], [ -121.915867832334001, 39.228915932069498 ], [ -121.915575767952006, 39.227975240995001 ], [ -121.915111837745997, 39.226585202127303 ], [ -121.914723799331995, 39.225974992197798 ], [ -121.915225569984997, 39.225062195961698 ], [ -121.915313079637002, 39.224444067348401 ], [ -121.915124252891005, 39.223419430875303 ], [ -121.914976203465002, 39.221983024754799 ], [ -121.915168176812998, 39.221322056658003 ], [ -121.915349223351001, 39.2202912629294 ], [ -121.915323783323998, 39.2194283556302 ], [ -121.914926082885998, 39.218489423984003 ], [ -121.914631667278002, 39.217466548069503 ], [ -121.913246686942998, 39.215310706458801 ], [ -121.913594732716007, 39.214564903982598 ], [ -121.913988320426, 39.213571691740299 ], [ -121.914279885745998, 39.212703497104798 ], [ -121.913531802662007, 39.2124281838461 ], [ -121.912530449906995, 39.212527052217503 ], [ -121.911739187360993, 39.212581316069901 ], [ -121.911018567550002, 39.211442183548797 ], [ -121.910729041934999, 39.2105836574368 ], [ -121.909903096118995, 39.211255142737599 ], [ -121.909390499297999, 39.211798092378899 ], [ -121.908301595018997, 39.212515050340699 ], [ -121.907392628978997, 39.212160138306203 ], [ -121.906484853020004, 39.2118462957555 ], [ -121.905521888227, 39.211451128840999 ], [ -121.90432228844, 39.210196576402303 ], [ -121.902888249046001, 39.2045469656317 ], [ -121.901416312047004, 39.203009100141898 ], [ -121.901753572779, 39.201893503069599 ], [ -121.902147291567999, 39.200900328122998 ], [ -121.902054736428994, 39.199545190459297 ], [ -121.902076296060002, 39.198475948568301 ], [ -121.901948978985004, 39.197738070627203 ], [ -121.901455561554997, 39.197129563803301 ], [ -121.901175843109996, 39.196599735588798 ], [ -121.901107310832998, 39.1942575343841 ], [ -121.901126457580006, 39.193106110393202 ], [ -121.901098775348999, 39.192161013976701 ], [ -121.900502186400999, 39.191636406216801 ], [ -121.899805988981996, 39.1913190384616 ], [ -121.898897338054994, 39.190964031305697 ], [ -121.898560032898999, 39.190270721576603 ], [ -121.901509198178999, 39.1899342058801 ], [ -121.901797179870997, 39.188942780119604 ], [ -121.901449045684004, 39.187879649493397 ], [ -121.901954321602005, 39.187090188495901 ], [ -121.903132859416999, 39.1858373426154 ], [ -121.903209607235993, 39.184849388952301 ], [ -121.902703025530002, 39.183788902903501 ], [ -121.901997260979002, 39.183142795338803 ], [ -121.901311862609006, 39.181386333571197 ], [ -121.901062158759004, 39.180074905834601 ], [ -121.900132006551999, 39.178980275550103 ], [ -121.898946271179, 39.178177643322002 ], [ -121.898288599560004, 39.177366261964799 ], [ -121.896910917412995, 39.1754156762657 ], [ -121.895588442583005, 39.175355248455197 ], [ -121.894348802308997, 39.1745123507662 ], [ -121.891608057710997, 39.172913010237501 ], [ -121.889899275293999, 39.172283355187403 ], [ -121.888732875550005, 39.172138071574899 ], [ -121.886935277234002, 39.172085356475897 ], [ -121.885608130014006, 39.171860479595203 ], [ -121.884695024045001, 39.171340996998197 ], [ -121.884039949151003, 39.170611716075797 ], [ -121.882970038603005, 39.168327031230604 ], [ -121.87973987606, 39.168050988239301 ], [ -121.878093641595001, 39.167749008457697 ], [ -121.876663357561, 39.167607940985199 ], [ -121.874547899541, 39.167519114146103 ], [ -121.873333591138007, 39.167538917509901 ], [ -121.872079487592998, 39.168011571757603 ], [ -121.871308356737998, 39.168443395327103 ], [ -121.870460514458003, 39.168654592195701 ], [ -121.869764678072997, 39.168337016442798 ], [ -121.868634621181997, 39.167615382225399 ], [ -121.867493179654005, 39.168332840301098 ], [ -121.866259111451001, 39.167825588367101 ], [ -121.865506614615001, 39.1672139924558 ], [ -121.863947156202002, 39.166252609592199 ], [ -121.862566198931006, 39.165987210179203 ], [ -121.861071394107995, 39.1654358838787 ], [ -121.859563683850993, 39.164432493973102 ], [ -121.855043110007003, 39.161504443647701 ], [ -121.849971447320002, 39.161462862631502 ], [ -121.849791976687996, 39.160725760729903 ], [ -121.849115113120007, 39.1592155331317 ], [ -121.847896250223997, 39.159070706514001 ], [ -121.845460828686001, 39.158863170348901 ], [ -121.843780878369003, 39.159219032151 ], [ -121.842564347532004, 39.159156305198103 ], [ -121.834939538818006, 39.1566061084512 ], [ -121.833102372973997, 39.157005443623703 ], [ -121.832614486092993, 39.156561007327099 ], [ -121.833004755114999, 39.153553671433201 ], [ -121.833232652633995, 39.1522755837604 ], [ -121.831521934662007, 39.149671762974599 ], [ -121.830002207118, 39.1482159667475 ], [ -121.795366905883, 39.128601595834397 ], [ -121.772182843867, 39.115617290881602 ], [ -121.770522530457995, 39.1147384695997 ], [ -121.768802756075004, 39.113613871134 ], [ -121.766912416888005, 39.112039672693001 ], [ -121.764315024835994, 39.109695176268602 ], [ -121.762144337856, 39.1075085491563 ], [ -121.761096089318997, 39.105839070353802 ], [ -121.759244351785995, 39.103729701913103 ], [ -121.758136807447997, 39.101814464085201 ], [ -121.756287719205005, 39.097855009950699 ], [ -121.741226861935999, 39.0618246943272 ], [ -121.727520425405004, 39.062073173487597 ], [ -121.727683145843997, 39.032676276713303 ], [ -121.729159853018999, 39.0326950951223 ], [ -121.723050774813998, 39.0092303861259 ], [ -121.722002788319003, 39.005505010693497 ], [ -121.721025135570002, 39.002436370609701 ], [ -121.719375903598007, 38.9998711144152 ], [ -121.71804282798, 38.997301162783899 ], [ -121.717280275060006, 38.9963670550868 ], [ -121.716424408150999, 38.9958865708182 ], [ -121.712046836631998, 38.991758834314602 ], [ -121.696456384856006, 38.981959988287301 ], [ -121.686605325196993, 38.975939012867897 ], [ -121.681416070639997, 38.972890981838098 ], [ -121.678304290943004, 38.970716707541001 ], [ -121.675042204164995, 38.9688323009036 ], [ -121.673271628080002, 38.967583785899798 ], [ -121.672575418435002, 38.967141755479702 ], [ -121.671177716927005, 38.966052196530697 ], [ -121.668966873057002, 38.964070084734203 ], [ -121.665030072012996, 38.960509723137903 ], [ -121.635841748144998, 38.933140364314902 ], [ -121.626956739842996, 38.925291762678597 ], [ -121.626460301399007, 38.924394418241597 ], [ -121.625870057548994, 38.9239506042478 ], [ -121.620602162227001, 38.906375256208001 ], [ -121.618055109074007, 38.897874223165999 ], [ -121.617363057215002, 38.897555158189597 ], [ -121.615698401122003, 38.898318674965203 ], [ -121.613054891849004, 38.899918215072802 ], [ -121.609489100562996, 38.902517335420697 ], [ -121.608397763068993, 38.903067148972298 ], [ -121.606984625728998, 38.9033748062092 ], [ -121.604871202973001, 38.903034517357497 ], [ -121.600898194467007, 38.901980269832102 ], [ -121.598942634390994, 38.901637668715402 ], [ -121.589716439577998, 38.907316303831898 ], [ -121.583843916649002, 38.9145921270419 ], [ -121.583606609298002, 38.924174049440097 ], [ -121.584740021813005, 38.925365409013999 ], [ -121.580782026411995, 38.924732242898401 ], [ -121.580753455733003, 38.924647622458998 ], [ -121.580584444332004, 38.924219648046503 ], [ -121.580398412630004, 38.923745646316497 ], [ -121.580303397093004, 38.923341662509898 ], [ -121.578964333108004, 38.9217036973603 ], [ -121.577236243708995, 38.9198327722575 ], [ -121.577043260585995, 38.919675776447399 ], [ -121.576586220023003, 38.9193037797478 ], [ -121.575430185748999, 38.918354798261802 ], [ -121.575563272850005, 38.9243726142154 ], [ -121.575236288110005, 38.925166593788298 ], [ -121.575122272724997, 38.925445595930903 ], [ -121.574299287559001, 38.928330487908902 ], [ -121.573844312944004, 38.930201441515599 ], [ -121.573196336755998, 38.9328633427791 ], [ -121.572698345099994, 38.933916307810698 ], [ -121.572405331506999, 38.934900279374098 ], [ -121.572395326475004, 38.935166288473901 ], [ -121.571621358805999, 38.937506204555497 ], [ -121.571305359424002, 38.938932143363203 ], [ -121.570935374653999, 38.939393153961902 ], [ -121.570558351109995, 38.939866136777098 ], [ -121.569555548365003, 38.941366307913803 ], [ -121.567915505651996, 38.941200036620003 ], [ -121.567904554023997, 38.9407523669447 ], [ -121.568153666998001, 38.940173394916201 ], [ -121.568164068041, 38.938446648389501 ], [ -121.567771522344998, 38.937465387684703 ], [ -121.567514803486006, 38.935577866690103 ], [ -121.567669045561999, 38.933273596121097 ], [ -121.567718015357002, 38.930970773356599 ], [ -121.568625058902001, 38.929313939821597 ], [ -121.56880440194, 38.928037066991898 ], [ -121.568664958385, 38.9266412423829 ], [ -121.569301118254998, 38.922521516004799 ], [ -121.569067498082006, 38.921579177939599 ], [ -121.570427137799996, 38.916915090563201 ], [ -121.571356070473996, 38.916162334577301 ], [ -121.572541026421007, 38.915118270256301 ], [ -121.572830519633001, 38.914045427243302 ], [ -121.573112947325001, 38.912684900953202 ], [ -121.573762625938002, 38.911278216742403 ], [ -121.574831163794002, 38.9097835454766 ], [ -121.575468689025996, 38.907883677443799 ], [ -121.575629513695006, 38.907452971564801 ], [ -121.575662656982004, 38.907364208884303 ], [ -121.575709121881005, 38.907239743647096 ], [ -121.576059430580003, 38.906780127823197 ], [ -121.576211753056995, 38.906577653772203 ], [ -121.576524588037998, 38.906272135157998 ], [ -121.576609330919993, 38.9062049228856 ], [ -121.576714282257996, 38.906137427137502 ], [ -121.577309326576994, 38.905798939348401 ], [ -121.577925244569002, 38.905495094701003 ], [ -121.578160312427997, 38.905411951551599 ], [ -121.578789074968, 38.9051631760398 ], [ -121.579108783142004, 38.9048868364535 ], [ -121.579316376826, 38.904695212296403 ], [ -121.579432739623002, 38.904628524218303 ], [ -121.579725621449001, 38.904424851322297 ], [ -121.579993173301006, 38.9041959341045 ], [ -121.580261634243001, 38.903961555282798 ], [ -121.580502056092001, 38.903714361358603 ], [ -121.580725109371002, 38.903432671186899 ], [ -121.580412762923004, 38.903107615141003 ], [ -121.580506957327003, 38.903045321767699 ], [ -121.580395673742004, 38.902800181431601 ], [ -121.582751638019005, 38.900177625234797 ], [ -121.588036877145001, 38.896856562355303 ], [ -121.597207707109007, 38.893234354597503 ], [ -121.599335568073997, 38.892053487486599 ], [ -121.601940835495, 38.891030346673297 ], [ -121.602613336809995, 38.890568705474301 ], [ -121.604835936371998, 38.888975303190101 ], [ -121.608092898264005, 38.886668431336702 ], [ -121.609992504475002, 38.884791703757799 ], [ -121.610699994686996, 38.8836306512463 ], [ -121.611203220245002, 38.882609252721501 ], [ -121.611540581816001, 38.879384425978301 ], [ -121.613515210662001, 38.876314371972398 ], [ -121.619878212884004, 38.865782262826002 ], [ -121.622476787370999, 38.862456530665 ], [ -121.624054801902005, 38.860378599923102 ], [ -121.625486378060003, 38.858754919671298 ], [ -121.626752928103002, 38.8568457801926 ], [ -121.627802924753993, 38.854693088486101 ], [ -121.628905395155996, 38.852539620992303 ], [ -121.629738750040005, 38.850143319311201 ], [ -121.630474193669002, 38.8480361700123 ], [ -121.634121572458994, 38.836349705433499 ], [ -121.635671529530001, 38.833203105236798 ], [ -121.638824640299006, 38.826950178872998 ], [ -121.640524481490999, 38.823513574120703 ], [ -121.640690756213004, 38.8217845413471 ], [ -121.640497596369002, 38.820389530959197 ], [ -121.640371595619001, 38.819569138719501 ], [ -121.639504800227002, 38.818553798689798 ], [ -121.638361729189995, 38.817007994124701 ], [ -121.636525300448994, 38.815061033740903 ], [ -121.635684028838995, 38.812976415302799 ], [ -121.635301665309996, 38.8124063508657 ], [ -121.634868870548004, 38.811919217016602 ], [ -121.634592620242998, 38.811388722352099 ], [ -121.633912190131994, 38.809425140285299 ], [ -121.633371715032993, 38.806760669339297 ], [ -121.633175066445006, 38.8031457500323 ], [ -121.632340789880004, 38.799252136788901 ], [ -121.631456678147998, 38.797538125338598 ], [ -121.630050452686007, 38.795954878753101 ], [ -121.628308391748007, 38.793554215207998 ], [ -121.626314214600001, 38.791568221493598 ], [ -121.624951435916998, 38.789614301455899 ], [ -121.623279822068, 38.787911435980703 ], [ -121.620931747268997, 38.786464810124997 ], [ -121.619059529772002, 38.785134723915 ], [ -121.616213490529006, 38.784158715156501 ], [ -121.616280660960001, 38.782359554184801 ], [ -121.617180467850005, 38.782625388789903 ], [ -121.618220529778, 38.783121398976199 ], [ -121.620028570854004, 38.7837773925147 ], [ -121.620666596966998, 38.784009392266299 ], [ -121.622236654977996, 38.784578379951299 ], [ -121.624124731235, 38.785186379378402 ], [ -121.625292772638005, 38.785186392932196 ], [ -121.626012816303998, 38.785298385309503 ], [ -121.627976869747002, 38.784912417123699 ], [ -121.630668946957002, 38.7835704731947 ], [ -121.631212933049, 38.7831225079318 ], [ -121.631596963543998, 38.782690535487902 ], [ -121.631740955219001, 38.782402536531201 ], [ -121.631548943959004, 38.781666550466603 ], [ -121.631116904918002, 38.781250576578401 ], [ -121.630812893555003, 38.7811225579024 ], [ -121.629772861058001, 38.780562571631002 ], [ -121.629068819135, 38.780114583923101 ], [ -121.628844825420998, 38.779954578918698 ], [ -121.628268774188996, 38.779330599347901 ], [ -121.628108769956, 38.778962604285603 ], [ -121.628332764926995, 38.778530624017598 ], [ -121.627932751274997, 38.777746653803803 ], [ -121.628140755724999, 38.777346667181803 ], [ -121.628380744194999, 38.776994698379397 ], [ -121.628684755341993, 38.776802689852197 ], [ -121.629436772849004, 38.776626719546698 ], [ -121.629884793873003, 38.7764987074017 ], [ -121.630444803640003, 38.776258715646897 ], [ -121.630828835577006, 38.776002729816099 ], [ -121.631372842572006, 38.775586753427497 ], [ -121.631676835663001, 38.775266778476897 ], [ -121.631948836625, 38.774722801290899 ], [ -121.632060856308996, 38.774210800418302 ], [ -121.632252835255002, 38.773314847530102 ], [ -121.632220806814004, 38.7725148676736 ], [ -121.632268820145001, 38.771538909960299 ], [ -121.632332786443001, 38.770658944175601 ], [ -121.632540804973004, 38.770002950060601 ], [ -121.632652783325995, 38.7696189618609 ], [ -121.633020785533006, 38.7688989994571 ], [ -121.633340807322995, 38.768259036943299 ], [ -121.633724798360007, 38.767619055729099 ], [ -121.634012801820006, 38.767235072300601 ], [ -121.634268813934, 38.766899067953801 ], [ -121.634828812707994, 38.766787096122798 ], [ -121.635420842425006, 38.766803098444001 ], [ -121.635900858945007, 38.766899091277502 ], [ -121.636188883716997, 38.767091081052598 ], [ -121.636370894451005, 38.767857068989301 ], [ -121.636423890418996, 38.768118067339699 ], [ -121.636547900359005, 38.768553048112302 ], [ -121.636641928868997, 38.769083025144703 ], [ -121.637129956628002, 38.7698809978085 ], [ -121.637404972439995, 38.7703229847451 ], [ -121.637980982916005, 38.770914984547403 ], [ -121.638621013120996, 38.771410964703499 ], [ -121.639309049446993, 38.771938942795899 ], [ -121.639933068074996, 38.772434948248097 ], [ -121.640413108092005, 38.772770940670803 ], [ -121.641181114619002, 38.773026927575103 ], [ -121.641677131053001, 38.773298929928799 ], [ -121.642973209822998, 38.773586930709897 ], [ -121.644317238224005, 38.773778930276499 ], [ -121.645277265722001, 38.774002939353203 ], [ -121.646173298023996, 38.774082943164998 ], [ -121.646765329776002, 38.774082961268299 ], [ -121.647421352923999, 38.774002963269901 ], [ -121.647869350636995, 38.773890972691099 ], [ -121.648125370654, 38.773778975283101 ], [ -121.648461366931997, 38.773474979756998 ], [ -121.648589363926007, 38.773219010984 ], [ -121.648605369121995, 38.7730110033336 ], [ -121.648477377264001, 38.772691021668898 ], [ -121.646477257767003, 38.771235035241602 ], [ -121.645437218454006, 38.7707230496611 ], [ -121.644893212824996, 38.770467062356502 ], [ -121.644269200276995, 38.7702750537334 ], [ -121.643844162614002, 38.770141068980003 ], [ -121.643005129252998, 38.770099060696303 ], [ -121.642477109275006, 38.769987050812297 ], [ -121.642029107444003, 38.769859057085398 ], [ -121.641405079692007, 38.7696030536923 ], [ -121.640685042851999, 38.769315062189797 ], [ -121.640125033209998, 38.769011059612403 ], [ -121.639548989917003, 38.768515066660903 ], [ -121.639100978149003, 38.767811083162599 ], [ -121.638908960194001, 38.767539109452699 ], [ -121.638780953467005, 38.767267114955096 ], [ -121.639228960102997, 38.7669471289596 ], [ -121.639692974477001, 38.766755122064701 ], [ -121.640060995569996, 38.7666591416084 ], [ -121.640509004578007, 38.766531143500998 ], [ -121.640973012646, 38.766339158941697 ], [ -121.641309025496994, 38.766163170059897 ], [ -121.641645029957004, 38.766051186935996 ], [ -121.642925096639004, 38.765939200172397 ], [ -121.64527716053, 38.765955226107202 ], [ -121.645757174321005, 38.7658912299473 ], [ -121.646093167767006, 38.7658432406797 ], [ -121.646829198827007, 38.765683227696002 ], [ -121.647421226106999, 38.765507258442298 ], [ -121.648093228185004, 38.765123280223598 ], [ -121.648733253662002, 38.7648992868587 ], [ -121.649565296975993, 38.764675293208697 ], [ -121.650573311252003, 38.764483318859199 ], [ -121.651293318659995, 38.764403327047702 ], [ -121.652157344779994, 38.764227326738101 ], [ -121.652605365794003, 38.764211341904797 ], [ -121.652893371158996, 38.764227360837502 ], [ -121.653725429743005, 38.764291354019001 ], [ -121.654365453574002, 38.764387363294297 ], [ -121.654893455763002, 38.7645633533484 ], [ -121.655469465899998, 38.764835342556701 ], [ -121.656029500716002, 38.765155334640703 ], [ -121.656461517400999, 38.765491338154597 ], [ -121.656701548694002, 38.765667345976603 ], [ -121.656989547332998, 38.765955335181403 ], [ -121.657197560137007, 38.7662113175139 ], [ -121.657357580199999, 38.766499312184898 ], [ -121.657750601310994, 38.766844312065501 ], [ -121.657845598338994, 38.767380287873301 ], [ -121.657959593445995, 38.767948254261697 ], [ -121.658071607386006, 38.768841245674203 ], [ -121.658460647785006, 38.768930232000798 ], [ -121.659100662441006, 38.768994252806998 ], [ -121.659932689610997, 38.769026239041501 ], [ -121.661084734905998, 38.768882263879803 ], [ -121.662172764594004, 38.768738283223399 ], [ -121.662764784811003, 38.768546282154297 ], [ -121.663372793861001, 38.7682583006846 ], [ -121.663708792963007, 38.767986305707701 ], [ -121.664124803771998, 38.767474330883203 ], [ -121.664396799567996, 38.767058346465099 ], [ -121.664460790758, 38.7666903625706 ], [ -121.664444786569007, 38.766194381156502 ], [ -121.664389788685, 38.765808397170403 ], [ -121.664217784759003, 38.765289420782899 ], [ -121.663837741734, 38.764835441113803 ], [ -121.661497639792998, 38.762511493067898 ], [ -121.661181624926002, 38.762243505671897 ], [ -121.660797624181001, 38.761891514144402 ], [ -121.660189580535004, 38.761395502638003 ], [ -121.659805573137007, 38.760995537036699 ], [ -121.659581574127998, 38.760739539835001 ], [ -121.659341531135993, 38.760355536556197 ], [ -121.658973528051007, 38.759779548536102 ], [ -121.658717508598997, 38.759203586594602 ], [ -121.658397484990999, 38.758643581536298 ], [ -121.658157479297003, 38.758035620855701 ], [ -121.658077476998002, 38.757475635061901 ], [ -121.658013457981994, 38.756771646766801 ], [ -121.657981442698997, 38.756019672134101 ], [ -121.657965427015995, 38.755331696445197 ], [ -121.658029419315, 38.754931726064598 ], [ -121.658077408042999, 38.754643740920798 ], [ -121.658253420847004, 38.754371729479601 ], [ -121.658541414124997, 38.754323755183997 ], [ -121.659053461382001, 38.754339758894403 ], [ -121.660877501380995, 38.754771759918498 ], [ -121.662589591884, 38.755203763752597 ], [ -121.663261594209004, 38.755382029217301 ], [ -121.663645623714999, 38.755203753692101 ], [ -121.664029624156996, 38.755283755425403 ], [ -121.664477631693998, 38.755235762706299 ], [ -121.664555633619003, 38.755493772521802 ], [ -121.665053677920994, 38.755491778582197 ], [ -121.665373678638005, 38.755363782039701 ], [ -121.665997680388003, 38.755011798807303 ], [ -121.666717714810005, 38.7545798256252 ], [ -121.667245719074003, 38.754243843123596 ], [ -121.667677730419996, 38.753939847624501 ], [ -121.668189757107996, 38.753523882172402 ], [ -121.668573749185001, 38.752979892380601 ], [ -121.668781732216999, 38.752323915897499 ], [ -121.668893727546006, 38.751827942931001 ], [ -121.668877748762, 38.7513959410322 ], [ -121.668829733009005, 38.750915959336403 ], [ -121.668717714943, 38.750595990284197 ], [ -121.668477718486002, 38.750115981934499 ], [ -121.668285675826993, 38.749827993123802 ], [ -121.668157702216007, 38.749651999959298 ], [ -121.668013687514005, 38.749412008919101 ], [ -121.668013676037006, 38.7492040075077 ], [ -121.667933670566995, 38.748788022966998 ], [ -121.667949673641004, 38.748244024988601 ], [ -121.667885673854002, 38.747652019514099 ], [ -121.667917655772001, 38.747268042964102 ], [ -121.668045667846002, 38.746916056203901 ], [ -121.668269674388995, 38.746468045274099 ], [ -121.668493669097998, 38.746052078447903 ], [ -121.668765667054998, 38.745620074903798 ], [ -121.669165666599994, 38.745092082318799 ], [ -121.669421673900004, 38.744772091553997 ], [ -121.669725679455993, 38.744452099551403 ], [ -121.670077698713001, 38.744068126659698 ], [ -121.670445721841006, 38.7437481225559 ], [ -121.67079771841, 38.7435721213985 ], [ -121.671149713109997, 38.743396146629898 ], [ -121.671581728505998, 38.7431721519524 ], [ -121.671901735763001, 38.743028156408599 ], [ -121.672429762853, 38.742884170762999 ], [ -121.672797787918995, 38.742804150319998 ], [ -121.673053798135001, 38.742852156216003 ], [ -121.673373779802006, 38.742980164752701 ], [ -121.673693819901999, 38.743172151881801 ], [ -121.674205814036, 38.743604174020902 ], [ -121.674589840259003, 38.744020156032903 ], [ -121.675069880706005, 38.7445801531371 ], [ -121.675517893727999, 38.745268154557401 ], [ -121.675933913232001, 38.746100141831697 ], [ -121.676269926554994, 38.746724122699199 ], [ -121.676397934159993, 38.746996130861397 ], [ -121.676525937595997, 38.747300128507497 ], [ -121.676733940369004, 38.7477161341521 ], [ -121.676861949095994, 38.748004122868799 ], [ -121.676957965192997, 38.748388101142702 ], [ -121.676989956686, 38.748756112255897 ], [ -121.677005959043996, 38.749124106307697 ], [ -121.676925986295998, 38.749508088877299 ], [ -121.676893966836005, 38.749764081597803 ], [ -121.677165976604996, 38.749700090484303 ], [ -121.677181984938997, 38.750036094863397 ], [ -121.677085987294006, 38.750420060400202 ], [ -121.676941978684994, 38.750836046599098 ], [ -121.676797988619001, 38.751124046662099 ], [ -121.676637974952996, 38.751396020809501 ], [ -121.676526003068005, 38.751652010268799 ], [ -121.676349988929005, 38.751972019973898 ], [ -121.676109987979004, 38.752228008874802 ], [ -121.675901971420004, 38.7524519871357 ], [ -121.675549985627001, 38.752787979411998 ], [ -121.675261969896994, 38.753059950698997 ], [ -121.675069970739997, 38.753299953374402 ], [ -121.674717964902001, 38.753699922338797 ], [ -121.674333963283004, 38.753971924304203 ], [ -121.674237969792998, 38.754227901461597 ], [ -121.674205970448995, 38.754499901989398 ], [ -121.673949952881998, 38.754803894554101 ], [ -121.673629947598997, 38.755043864663001 ], [ -121.673277931523003, 38.755411867056502 ], [ -121.672765932063996, 38.7559398323652 ], [ -121.672477920885001, 38.756403816913199 ], [ -121.672093902491994, 38.756803797406299 ], [ -121.671677898791998, 38.757043792927497 ], [ -121.671149906216996, 38.757331769926203 ], [ -121.670589868147999, 38.757571737785703 ], [ -121.670349878508006, 38.757763735558797 ], [ -121.670205882811004, 38.7580517273989 ], [ -121.670203885237001, 38.758482716741099 ], [ -121.670131884829999, 38.758876712200099 ], [ -121.670031899755998, 38.759315688114398 ], [ -121.670731908896997, 38.7593956868471 ], [ -121.672475964323993, 38.759731693480703 ], [ -121.673548015642993, 38.7599236858876 ], [ -121.674476051512002, 38.760051697199998 ], [ -121.675164055229004, 38.760067711175601 ], [ -121.675740077379004, 38.760099718863898 ], [ -121.676106273791007, 38.760108869178602 ], [ -121.672195047977993, 38.763607575228903 ], [ -121.670078600485994, 38.765036360999098 ], [ -121.667930766037003, 38.767287741830501 ], [ -121.664949074611002, 38.769797950476999 ], [ -121.662952098407999, 38.771800402784898 ], [ -121.661266891835993, 38.773674921248002 ], [ -121.659889293229, 38.775257193246397 ], [ -121.659287684437004, 38.776375943833401 ], [ -121.657358679705993, 38.778993962695502 ], [ -121.655994584865994, 38.781110413214698 ], [ -121.655289030643004, 38.7843273242379 ], [ -121.654873241215995, 38.786553332723997 ], [ -121.654631840944006, 38.789434614741097 ], [ -121.654414517389995, 38.791205531232897 ], [ -121.654843264619004, 38.793583754537501 ], [ -121.655000983856993, 38.795637019161298 ], [ -121.656206248033996, 38.799607324929198 ], [ -121.663464903228004, 38.818248428481397 ], [ -121.663919107759, 38.819557385421703 ], [ -121.664236898244994, 38.821690505640703 ], [ -121.664275015909993, 38.823169956992302 ], [ -121.663974580331001, 38.823749896197803 ], [ -121.663514763056995, 38.826305470388398 ], [ -121.662430669944001, 38.829116793151201 ], [ -121.649491602490002, 38.8617407955633 ], [ -121.648348598062, 38.864347262998599 ], [ -121.646531436977995, 38.867333428577801 ], [ -121.644906600767996, 38.869617925101302 ], [ -121.643367608115994, 38.871462362473302 ], [ -121.640288438335006, 38.874165378964797 ], [ -121.637995297366004, 38.8770760174245 ], [ -121.636286742669, 38.880224886939502 ], [ -121.635923444816001, 38.882491174374998 ], [ -121.635887120001996, 38.885204989320002 ], [ -121.635937225481001, 38.887177581528199 ], [ -121.636701323487003, 38.890332138039298 ], [ -121.637235214162999, 38.893285851994001 ], [ -121.641171967061993, 38.915057657798897 ], [ -121.641756763767006, 38.917351423045098 ], [ -121.642605695954003, 38.919682543667399 ], [ -121.643601045671005, 38.921559310782499 ], [ -121.644753227311995, 38.923392696589801 ], [ -121.646703205921995, 38.925543472151602 ], [ -121.648593310505007, 38.927407339334202 ], [ -121.676596129252999, 38.9536398190886 ], [ -121.677036478100007, 38.954373356053097 ], [ -121.679564183021995, 38.956391803623497 ], [ -121.681502168397003, 38.9580077464555 ], [ -121.684821927762002, 38.960096668923001 ], [ -121.687396235885998, 38.9618675881404 ], [ -121.693616571063004, 38.966092303424801 ], [ -121.697199226321004, 38.968135842257198 ], [ -121.700254512670995, 38.9701460339747 ], [ -121.721407133387004, 38.983149713726903 ], [ -121.724740209380997, 38.985648428246698 ], [ -121.727272568157005, 38.987747990801701 ], [ -121.727605017575002, 38.988359630917202 ], [ -121.730318649839006, 38.991319731594203 ], [ -121.732746188464006, 38.995394103714702 ], [ -121.733860250172, 38.997638309520198 ], [ -121.734302577218997, 38.998412732549802 ], [ -121.736231436927, 39.003522403995198 ], [ -121.739683295830005, 39.016255696652102 ], [ -121.740545530362994, 39.018914844695502 ], [ -121.741877628034004, 39.021402398563197 ], [ -121.742162474408005, 39.021824647277697 ], [ -121.741957239230999, 39.022691207294997 ], [ -121.742714267937998, 39.030028259338501 ], [ -121.743779569165994, 39.0313421099792 ], [ -121.744127609885993, 39.032509344592199 ], [ -121.770168889222006, 39.096038421199097 ], [ -121.771771684144994, 39.098685905951697 ], [ -121.772757163801998, 39.099986247473701 ], [ -121.774448697563002, 39.102015657541202 ], [ -121.776498311783996, 39.103628400490102 ], [ -121.778283158069996, 39.105204085153801 ], [ -121.778832125475006, 39.105976686279398 ], [ -121.780280192440998, 39.106817566529003 ], [ -121.809808353910995, 39.122882610012802 ], [ -121.811631069737004, 39.123881642951901 ], [ -121.814370430409994, 39.125565059334797 ], [ -121.816788730338999, 39.127089065441702 ], [ -121.818776890506001, 39.128332040207802 ], [ -121.820735076345997, 39.128506564641498 ], [ -121.829076531709006, 39.1341296006226 ], [ -121.830524950533999, 39.134458703902901 ], [ -121.830820466136998, 39.134501362270903 ], [ -121.837460452550999, 39.139340258028703 ], [ -121.837586992094003, 39.140078242059097 ], [ -121.842758648745999, 39.143695422617398 ], [ -121.843143293994004, 39.144223698491302 ], [ -121.843835069036999, 39.146268140986898 ], [ -121.845316464850001, 39.146367697341603 ], [ -121.846880043095993, 39.1456436767375 ], [ -121.847989588922999, 39.1456669558398 ], [ -121.850216959755997, 39.146001108901899 ], [ -121.853046052224002, 39.147065520630001 ], [ -121.854760937563, 39.1479423213462 ], [ -121.854919356015003, 39.149789766196399 ], [ -121.855442584860995, 39.151466877981903 ], [ -121.858116005938001, 39.152615897921599 ], [ -121.859766484852997, 39.153082525449598 ], [ -121.861407578908, 39.1532203994132 ], [ -121.865775459073006, 39.156356268977603 ], [ -121.867742815122995, 39.156817628265898 ], [ -121.869230398369993, 39.1571223505373 ], [ -121.870930303313003, 39.157464685624902 ], [ -121.871733985861994, 39.157862713810403 ], [ -121.873164063016006, 39.158003869402599 ], [ -121.874063856662005, 39.1580714276053 ], [ -121.877163030833998, 39.157486402930999 ], [ -121.879207545214001, 39.156959654316701 ], [ -121.882049823068996, 39.156625385580398 ], [ -121.883951413725001, 39.156635336693697 ], [ -121.885911781703001, 39.156849871104903 ], [ -121.887834847549001, 39.157599396868903 ], [ -121.889675125175998, 39.159131399920902 ], [ -121.895682312071003, 39.164089197040802 ], [ -121.900346377982999, 39.168246672815698 ], [ -121.901024421569005, 39.169756600428599 ], [ -121.903208555614995, 39.172187131560698 ], [ -121.904155523998995, 39.173857035770197 ], [ -121.905458907446999, 39.175068768276702 ], [ -121.907814776544996, 39.176139725002002 ], [ -121.908650270799001, 39.177605853418903 ], [ -121.908824661783001, 39.179946301014503 ], [ -121.909336433679997, 39.182980055402702 ], [ -121.909998211092002, 39.185723534835098 ], [ -121.911211977910995, 39.187471148679698 ], [ -121.911290175052002, 39.188333169214197 ], [ -121.912042012745999, 39.190540684953604 ], [ -121.917462769151996, 39.195178244391101 ], [ -121.919123160492006, 39.195931674777398 ], [ -121.920487918296999, 39.1956211115372 ], [ -121.922031783866998, 39.196006441536198 ], [ -121.923267227948998, 39.196684680415999 ], [ -121.924340646481994, 39.197242292247402 ], [ -121.927884354992003, 39.197347388375 ], [ -121.929398871418996, 39.197235602561904 ], [ -121.929037577906996, 39.198282705356398 ], [ -121.928508617025003, 39.198740695785098 ], [ -121.928861612719004, 39.199427666916797 ], [ -121.929008641571997, 39.200251659767503 ], [ -121.929596657427993, 39.201555620741402 ], [ -121.929713673535005, 39.202196593163102 ], [ -121.930066713038997, 39.203867537364403 ], [ -121.931595788855006, 39.206064481993899 ], [ -121.932713835401998, 39.2078954149042 ], [ -121.933095833322994, 39.208421408254999 ], [ -121.933389867646994, 39.2092683772402 ], [ -121.933360882502996, 39.209840372032602 ], [ -121.933183894829995, 39.210206354843699 ], [ -121.932506883920993, 39.2109623504263 ], [ -121.932477918570996, 39.2115793193312 ], [ -121.93342294544, 39.212632287371598 ], [ -121.933771925545997, 39.213021276361303 ], [ -121.935007964533995, 39.214189248312103 ], [ -121.935448992324993, 39.214715211155301 ], [ -121.935684016565006, 39.2155391865805 ], [ -121.935919031476004, 39.215951197391497 ], [ -121.936420039479998, 39.2165231796277 ], [ -121.937743060019997, 39.217759124936798 ], [ -121.938008071745003, 39.218240119135601 ], [ -121.938096111503995, 39.218835102575497 ], [ -121.937890107189006, 39.219567077247802 ], [ -121.936625100149001, 39.220276049452004 ], [ -121.936331108665001, 39.2206200620762 ], [ -121.936243135588995, 39.221100043370299 ], [ -121.936684149325004, 39.221306017878597 ], [ -121.937802137155003, 39.221421031400602 ], [ -121.939685159321002, 39.221787003467298 ], [ -121.940215164711006, 39.221673000233302 ], [ -121.940626150466002, 39.221421018096002 ], [ -121.941215187436001, 39.221626995700603 ], [ -121.941421165365, 39.221787008210597 ], [ -121.941509199706005, 39.222129989113498 ], [ -121.941156211606994, 39.222930976904699 ], [ -121.941185228235994, 39.224075944246898 ], [ -121.940950246979, 39.224441908505 ], [ -121.940362232332006, 39.2249219132582 ], [ -121.940185261758998, 39.225265912543797 ], [ -121.940273251703999, 39.225951885529902 ], [ -121.940420301223995, 39.226890848723897 ], [ -121.940185290906996, 39.227942821261998 ], [ -121.940185309655007, 39.228629792208302 ], [ -121.940362344395993, 39.228972791542098 ], [ -121.940597350548003, 39.229270790809203 ], [ -121.940656339225001, 39.229567766781798 ], [ -121.940950358204006, 39.230139759822499 ], [ -121.942569424154001, 39.232062683982399 ], [ -121.943451443881003, 39.232748656735097 ], [ -121.943510455202997, 39.234007636355599 ], [ -121.943657475327001, 39.234305614015 ], [ -121.944099470766005, 39.234785607022403 ], [ -121.944158497174996, 39.2350145977667 ], [ -121.944334475637007, 39.2351745903159 ], [ -121.944570517298999, 39.236090552459999 ], [ -121.944776524586004, 39.236502557265403 ], [ -121.945541526208999, 39.237257512078102 ], [ -121.946247568459, 39.238493477979098 ], [ -121.946659596797005, 39.239019464663599 ], [ -121.948190623596005, 39.240392417023102 ], [ -121.948307653418993, 39.240850393306999 ], [ -121.948308662082994, 39.241788372699801 ], [ -121.947925664615994, 39.242795345050702 ], [ -121.947548695847004, 39.243562318934202 ], [ -121.947404728706005, 39.244475301869898 ], [ -121.947447741643003, 39.245323268680004 ], [ -121.947158759660994, 39.246171250414903 ], [ -121.946920771256003, 39.247052230017303 ], [ -121.946817763306001, 39.247714193032699 ], [ -121.946861793683993, 39.2486111702122 ], [ -121.946987828871002, 39.2492161544928 ], [ -121.946970828979005, 39.249894136130202 ], [ -121.946575823046999, 39.250680125024701 ], [ -121.946274838156995, 39.251016112404102 ], [ -121.946059833039996, 39.251823103996301 ], [ -121.945868849896996, 39.2521521120415 ], [ -121.945486855875004, 39.2532510820648 ], [ -121.945015842263999, 39.253777069448503 ], [ -121.944337832906001, 39.254445072431203 ], [ -121.943346829674994, 39.255218051835797 ], [ -121.942398855245003, 39.256294056105297 ], [ -121.942097837305994, 39.257134027474002 ], [ -121.941753876625995, 39.258176030313997 ], [ -121.941884858614003, 39.259217994434103 ], [ -121.941971896224004, 39.260360976927501 ], [ -121.941627882657002, 39.261402978621803 ], [ -121.941327911011001, 39.262646944940201 ], [ -121.940422881973006, 39.263823938578803 ], [ -121.938742917252995, 39.265537902904299 ], [ -121.937967920600002, 39.266647895760499 ], [ -121.936761909466, 39.268260875980602 ], [ -121.935640929070004, 39.269067873448897 ], [ -121.934389905226993, 39.269639868281899 ], [ -121.932837904251002, 39.270177850592702 ], [ -121.931885891559006, 39.270048857738203 ], [ -121.930825879796004, 39.270300863686103 ], [ -121.929647897579997, 39.270712861152703 ], [ -121.929059903224996, 39.271169850659902 ], [ -121.928911902723996, 39.271444848554403 ], [ -121.928882889204004, 39.2724748380896 ], [ -121.928617915846004, 39.273458831028698 ], [ -121.927763893001, 39.273847833231599 ], [ -121.927615906374996, 39.274167830689699 ], [ -121.927664897789995, 39.274413817173297 ], [ -121.928096905594003, 39.274850808192099 ], [ -121.928140933365, 39.275220812790302 ], [ -121.927795921050006, 39.275690794265202 ], [ -121.927191928298001, 39.276228788379697 ], [ -121.926458911352995, 39.276531779742797 ], [ -121.925898917115006, 39.276666787107402 ], [ -121.925407920983005, 39.277028791893898 ], [ -121.924288936725006, 39.277897787099 ], [ -121.923227937066002, 39.279087749314698 ], [ -121.922550918639004, 39.2801177475583 ], [ -121.921637929764998, 39.280597738814201 ], [ -121.921136930212995, 39.281078742819403 ], [ -121.920900946220002, 39.281604733292802 ], [ -121.920930956179006, 39.282726710389198 ], [ -121.921342966409, 39.283870690344003 ], [ -121.921665966606, 39.285037672422099 ], [ -121.921812973884002, 39.285838650154602 ], [ -121.922165981855997, 39.286433648775798 ], [ -121.922313991582001, 39.2870056389607 ], [ -121.922284006270999, 39.287669627312603 ], [ -121.922106992758998, 39.2883106189865 ], [ -121.921370996904997, 39.289157598844703 ], [ -121.919132000470995, 39.289248600362598 ], [ -121.918956009995, 39.289431613380799 ], [ -121.918866994300998, 39.290026588861899 ], [ -121.918425023203, 39.290781582057697 ], [ -121.918454996153997, 39.291170579043801 ], [ -121.918808020276003, 39.291811576680701 ], [ -121.918749034358001, 39.292314565921998 ], [ -121.918307011051994, 39.292612545177597 ], [ -121.917924003889993, 39.2925665619656 ], [ -121.917246994889993, 39.292085568997301 ], [ -121.916717025835993, 39.292108585706302 ], [ -121.916452021433003, 39.292405558183503 ], [ -121.916451024699001, 39.292680561571203 ], [ -121.916805002873005, 39.293252540138099 ], [ -121.916952032637994, 39.293641538132398 ], [ -121.917010056118997, 39.295472513785001 ], [ -121.916892055751006, 39.295724507748403 ], [ -121.916126039388004, 39.296113513123899 ], [ -121.915596026309004, 39.296502491815602 ], [ -121.915507050678002, 39.297623474446503 ], [ -121.915065054869004, 39.298241473441301 ], [ -121.913504059792999, 39.299545471260203 ], [ -121.912473074055001, 39.300117472920903 ], [ -121.911942072829007, 39.300323464334902 ], [ -121.910587043613006, 39.300895451977397 ], [ -121.909674055129997, 39.301101469905099 ], [ -121.908702039510004, 39.301421461171401 ], [ -121.908113052966996, 39.301878451402899 ], [ -121.907906054012003, 39.302244447420797 ], [ -121.907847082187004, 39.303022433447197 ], [ -121.908112058186006, 39.303457414202697 ], [ -121.908109096996995, 39.303913353012597 ], [ -121.907120080870996, 39.303904417294198 ], [ -121.900687023236998, 39.303850451893197 ], [ -121.898199005367005, 39.3038304662754 ], [ -121.883683946331004, 39.3037095506631 ], [ -121.882546932015998, 39.303700561923002 ], [ -121.882206188346004, 39.303697803104697 ] ] ] } }
]
}
